[{"OBJECT_NAME":"STARLINK-3743","OBJECT_ID":"2022-029AG","EPOCH":"2026-03-09T09:44:01.241952","MEAN_MOTION":15.08837415,"ECCENTRICITY":0.00013949,"INCLINATION":53.2172,"RA_OF_ASC_NODE":80.3961,"ARG_OF_PERICENTER":96.216,"MEAN_ANOMALY":263.8991,"EPHEMERIS_TYPE":0,"CLASSIFICATION_TYPE":"U","NORAD_CAT_ID":52118,"ELEMENT_SET_NO":999,"REV_AT_EPOCH":22074,"BSTAR":5.5759885e-5,"MEAN_MOTION_DOT":6.0e-6,"MEAN_MOTION_DDOT":0},{"OBJECT_NAME":"PEGASUS DEB","OBJECT_ID":"1994-029WD","EPOCH":"2026-03-09T21:43:57.366912","MEAN_MOTION":14.89136591,"ECCENTRICITY":0.01058593,"INCLINATION":81.9743,"RA_OF_ASC_NODE":221.1497,"ARG_OF_PERICENTER":252.4191,"MEAN_ANOMALY":235.9905,"EPHEMERIS_TYPE":0,"CLASSIFICATION_TYPE":"U","NORAD_CAT_ID":24529,"ELEMENT_SET_NO":999,"REV_AT_EPOCH":23750,"BSTAR":0.00030874262,"MEAN_MOTION_DOT":3.26e-5,"MEAN_MOTION_DDOT":0}]
